[{"OBJECT_NAME":"STARLINK-5744","OBJECT_ID":"2023-020AJ","EPOCH":"2026-03-09T22:00:01.999584","MEAN_MOTION":15.10007874,"ECCENTRICITY":0.00010298,"INCLINATION":42.9995,"RA_OF_ASC_NODE":2.7509,"ARG_OF_PERICENTER":246.9542,"MEAN_ANOMALY":20.5186,"EPHEMERIS_TYPE":0,"CLASSIFICATION_TYPE":"U","NORAD_CAT_ID":55601,"ELEMENT_SET_NO":999,"REV_AT_EPOCH":577,"BSTAR":0.0014078131,"MEAN_MOTION_DOT":0.00023133,"MEAN_MOTION_DDOT":0},{"OBJECT_NAME":"ICEYE-X62","OBJECT_ID":"2025-276CT","EPOCH":"2026-03-09T22:00:01.999584","MEAN_MOTION":15.13749858,"ECCENTRICITY":0.00024067,"INCLINATION":97.4268,"RA_OF_ASC_NODE":144.1131,"ARG_OF_PERICENTER":24.3407,"MEAN_ANOMALY":42.0964,"EPHEMERIS_TYPE":0,"CLASSIFICATION_TYPE":"U","NORAD_CAT_ID":66755,"ELEMENT_SET_NO":999,"REV_AT_EPOCH":582,"BSTAR":-0.0014397534,"MEAN_MOTION_DOT":-0.00025905,"MEAN_MOTION_DDOT":0}]
